[{"OBJECT_NAME":"STARLINK-30931","OBJECT_ID":"2023-180M","EPOCH":"2026-03-09T22:12:15.948576","MEAN_MOTION":15.2674416,"ECCENTRICITY":8.208e-5,"INCLINATION":43.0053,"RA_OF_ASC_NODE":39.9328,"ARG_OF_PERICENTER":198.366,"MEAN_ANOMALY":161.7162,"EPHEMERIS_TYPE":0,"CLASSIFICATION_TYPE":"U","NORAD_CAT_ID":58413,"ELEMENT_SET_NO":999,"REV_AT_EPOCH":12779,"BSTAR":2.2262741e-5,"MEAN_MOTION_DOT":3.38e-6,"MEAN_MOTION_DDOT":0},{"OBJECT_NAME":"OBJECT N","OBJECT_ID":"2019-093N","EPOCH":"2026-03-09T21:41:56.087232","MEAN_MOTION":15.29897693,"ECCENTRICITY":0.0006278,"INCLINATION":98.0505,"RA_OF_ASC_NODE":226.9456,"ARG_OF_PERICENTER":33.3806,"MEAN_ANOMALY":326.7828,"EPHEMERIS_TYPE":0,"CLASSIFICATION_TYPE":"U","NORAD_CAT_ID":44891,"ELEMENT_SET_NO":999,"REV_AT_EPOCH":33957,"BSTAR":0.0010567776,"MEAN_MOTION_DOT":0.00030617,"MEAN_MOTION_DDOT":0}]
